COSMOS 2425 (716)       
1 29670U 06062A   18089.28030417  .00000011  00000-0  10000-3 0  9995
2 29670  65.3189 295.2036 0022353 351.2100  25.4878  2.13104939 87632
COSMOS 2426 (717)       
1 29671U 06062B   18088.53245550  .00000019  00000-0  10000-3 0  9997
2 29671  65.3349 295.3248 0016822 157.9100 221.3883  2.13103034 87629
COSMOS 2433 (720)       
1 32275U 07052A   18089.11951685 -.00000036  00000-0  10000-3 0  9999
2 32275  65.6522  56.0134 0005012 285.2066 159.7448  2.13104666 81144
COSMOS 2432 (719)       
1 32276U 07052B   18088.87534206 -.00000034  00000-0  10000-3 0  9996
2 32276  65.6651  56.0974 0013738 329.1811 240.5707  2.13104011 81130
COSMOS 2434 (721)       
1 32393U 07065A   18088.63834699  .00000018  00000-0  00000+0 0  9999
2 32393  64.9347 294.2371 0005532  90.9480 233.1484  2.13102952 79835
COSMOS 2436 (723)       
1 32395U 07065C   18088.65537701  .00000017  00000-0  10000-3 0  9991
2 32395  64.9436 294.2860 0016477   6.3430  20.9168  2.13104272 79776
COSMOS 2456 (730)       
1 36111U 09070A   18089.40508468  .00000009  00000-0  00000+0 0  9997
2 36111  64.1832 173.7943 0004537 314.3979  49.9519  2.13102834 64525
COSMOS 2457 (733)       
1 36112U 09070B   18088.64409764  .00000002  00000-0  00000-0 0  9996
2 36112  64.1655 173.7324 0005949 170.2811  97.5306  2.13101535 64502
COSMOS 2458 (734)       
1 36113U 09070C   18088.70456485  .00000002  00000-0  10000-3 0  9990
2 36113  64.1701 173.7411 0001724   4.1275 358.4002  2.13102164 64510
COSMOS 2459 (731)       
1 36400U 10007A   18088.59078450 -.00000034  00000-0  10000-3 0  9996
2 36400  65.5609  55.1016 0029007 348.0601 270.8351  2.13102253 62850
COSMOS 2461 (735)       
1 36401U 10007B   18088.72007766 -.00000035  00000-0  10000-3 0  9995
2 36401  65.5541  55.0747 0005907  41.3882 227.2825  2.13102245 62856
COSMOS 2460 (732)       
1 36402U 10007C   18089.12354131 -.00000038  00000-0  10000-3 0  9995
2 36402  65.5429  55.0285 0002785 313.1511 305.8450  2.13101690 62860
COSMOS 2464 (736)       
1 37139U 10041C   18089.11644605  .00000011  00000-0  00000+0 0  9993
2 37139  64.5381 294.0661 0025501  15.5268 183.1339  2.13102715 58935
COSMOS 2471 (701K)      
1 37372U 11009A   18089.40087236 -.00000040  00000-0  00000+0 0  9993
2 37372  65.5422  54.9644 0008930 246.0621   7.9761  2.13107666 55148
COSMOS 2474 (742)       
1 37829U 11055A   18089.21539175  .00000007  00000-0  00000+0 0  9996
2 37829  64.5078 174.4853 0008624 248.3589 188.9700  2.13101833 50518
COSMOS 2476 (744)       
1 37867U 11064A   18088.70337045  .00000001  00000-0  00000+0 0  9997
2 37867  64.4879 174.5657 0018158 241.9411 208.6055  2.13101979 49856
COSMOS 2477 (745)       
1 37868U 11064B   18089.38220332  .00000008  00000-0  00000+0 0  9990
2 37868  64.4949 174.5902 0016039 243.6889 186.5873  2.13101741 49828
COSMOS 2475 (743)       
1 37869U 11064C   18089.43278626  .00000009  00000-0  00000+0 0  9997
2 37869  64.5022 174.5828 0020459 268.8617 156.8637  2.13101879 49839
COSMOS 2485 (747)       
1 39155U 13019A   18088.90751747  .00000004  00000-0  00000+0 0  9995
2 39155  64.6561 174.6506 0018566 237.1962  54.8807  2.13101937 38323
COSMOS 2492 (754)       
1 39620U 14012A   18089.43823308 -.00000040  00000-0  10000-3 0  9994
2 39620  65.4343  54.9144 0017151 326.3232  47.5688  2.13103459 31291
COSMOS 2500 (755)       
1 40001U 14032A   18088.99428697 -.00000038  00000-0  00000+0 0  9995
2 40001  65.3748  54.9043 0006108 234.2707  21.4639  2.13102843 29498
COSMOS 2501 (702K)      
1 40315U 14075A   18089.18182596  .00000009  00000-0  00000+0 0  9994
2 40315  64.2624 295.3036 0014056 205.1304 357.0045  2.13098530 25909
COSMOS 2514 (751)       
1 41330U 16008A   18088.66102442 -.00000035  00000-0  00000+0 0  9994
2 41330  65.1763  54.9893 0009714 233.3729 307.4092  2.13103331 16659
COSMOS 2516 (753)       
1 41554U 16032A   18089.30644480  .00000008  00000-0  00000+0 0  9993
2 41554  64.4830 295.1430 0009860 216.3731 350.9269  2.13101707 14276
COSMOS 2522 (752)       
1 42939U 17055A   18088.73382296  .00000015  00000-0  00000+0 0  9995
2 42939  64.7145 295.1066 0005117 254.5681  99.8536  2.13101951  4018
